{
  "norad_id": 64345,
  "name": "STARLINK-34426",
  "history": [
    {
      "epoch": "2026-03-28T20:18:15.877440Z",
      "apogee_km": 573.7714391447053,
      "perigee_km": 570.3080270750615,
      "latitude_deg": 3.9412535214451597e-05,
      "longitude_deg": -144.76415014560735,
      "height_km": 574.499579045993,
      "semi_major_axis_km": 6950.176733109883,
      "eccentricity": 0.00024916,
      "inclination_deg": 70.003,
      "raan_deg": 346.0626,
      "arg_perigee_deg": 268.9183,
      "mean_anomaly_deg": 91.1691,
      "mean_motion_rev_day": 14.98335225
    },
    {
      "epoch": "2026-03-29T02:42:48.118752Z",
      "apogee_km": 573.7837254286978,
      "perigee_km": 570.2933472743425,
      "latitude_deg": -3.5467184814167596e-05,
      "longitude_deg": 118.16497748402055,
      "height_km": 574.502885375935,
      "semi_major_axis_km": 6950.175536351519,
      "eccentricity": 0.0002511,
      "inclination_deg": 70.0029,
      "raan_deg": 345.3893,
      "arg_perigee_deg": 268.7795,
      "mean_anomaly_deg": 91.3076,
      "mean_motion_rev_day": 14.98335612
    },
    {
      "epoch": "2026-03-30T02:44:48.973344Z",
      "apogee_km": 573.7953775383003,
      "perigee_km": 570.2688617269987,
      "latitude_deg": -3.0500698456516066e-05,
      "longitude_deg": 114.14999538735542,
      "height_km": 574.454195412544,
      "semi_major_axis_km": 6950.169119632649,
      "eccentricity": 0.0002537,
      "inclination_deg": 70.0029,
      "raan_deg": 342.8649,
      "arg_perigee_deg": 270.1665,
      "mean_anomaly_deg": 89.9203,
      "mean_motion_rev_day": 14.98337687
    },
    {
      "epoch": "2026-03-30T02:44:48.974208Z",
      "apogee_km": 573.7953775383003,
      "perigee_km": 570.2688617269987,
      "latitude_deg": -3.0500698935446984e-05,
      "longitude_deg": 114.14999177749948,
      "height_km": 574.454195412545,
      "semi_major_axis_km": 6950.169119632649,
      "eccentricity": 0.0002537,
      "inclination_deg": 70.0029,
      "raan_deg": 342.8649,
      "arg_perigee_deg": 270.1665,
      "mean_anomaly_deg": 89.9203,
      "mean_motion_rev_day": 14.98337687
    }
  ]
}